[{"OBJECT_NAME":"STARLINK-30864","OBJECT_ID":"2023-171P","EPOCH":"2026-03-09T22:00:01.999584","MEAN_MOTION":15.19809403,"ECCENTRICITY":0.00019525,"INCLINATION":43,"RA_OF_ASC_NODE":283.8256,"ARG_OF_PERICENTER":283.3772,"MEAN_ANOMALY":326.7357,"EPHEMERIS_TYPE":0,"CLASSIFICATION_TYPE":"U","NORAD_CAT_ID":58243,"ELEMENT_SET_NO":999,"REV_AT_EPOCH":573,"BSTAR":0.09583065,"MEAN_MOTION_DOT":0.02319339,"MEAN_MOTION_DDOT":0},{"OBJECT_NAME":"STARLINK-34110","OBJECT_ID":"2025-092H","EPOCH":"2026-03-09T22:00:01.999584","MEAN_MOTION":15.4924714,"ECCENTRICITY":0.00181269,"INCLINATION":42.9979,"RA_OF_ASC_NODE":165.6091,"ARG_OF_PERICENTER":24.4978,"MEAN_ANOMALY":20.6229,"EPHEMERIS_TYPE":0,"CLASSIFICATION_TYPE":"U","NORAD_CAT_ID":63811,"ELEMENT_SET_NO":999,"REV_AT_EPOCH":578,"BSTAR":0.003973099,"MEAN_MOTION_DOT":0.00229974,"MEAN_MOTION_DDOT":0}]
